NORAD_CAT_ID,OBJECT_NAME,OBJECT_TYPE,EPOCH,MEAN_MOTION,ECCENTRICITY,INCLINATION,RA_OF_ASC_NODE,ARG_OF_PERICENTER,MEAN_ANOMALY,BSTAR,MEAN_MOTION_DOT,MEAN_MOTION_DDOT,TLE_LINE0,TLE_LINE1,TLE_LINE2,SEMIMAJOR_AXIS,PERIOD,APOGEE,PERIGEE,DECAYED
53619.0,STARLINK-4609,PAYLOAD,2023-01-11 07:23:34,15.08857331,0.0002617,53.2172,11.8368,31.0197,329.0949,0.00044639,6.827e-05,0.0,0 STARLINK-4609,1 53619U 22104AH  23011.30804328  .00006827  00000-0  44639-3 0  9990,2 53619  53.2172  11.8368 0002617  31.0197 329.0949 15.08857331 21516,6917.826999999998,95.436,541.503,537.882,0.0
53619.0,STARLINK-4609,PAYLOAD,2023-01-11 16:55:53,15.08853954,0.0002527,53.2163,10.0526,28.8234,331.2898,0.00039638,6.028e-05,0.0,0 STARLINK-4609,1 53619U 22104AH  23011.70548201  .00006028  00000-0  39638-3 0  9995,2 53619  53.2163  10.0526 0002527  28.8234 331.2898 15.08853954 21008,6917.838000000002,95.437,541.451,537.955,0.0
53619.0,STARLINK-4609,PAYLOAD,2023-01-12 16:46:40,15.088429,0.0002641,53.2187,5.5928,30.965,329.1498,0.00010934,1.452e-05,0.0,0 STARLINK-4609,1 53619U 22104AH  23012.69908197  .00001452  00000-0  10934-3 0  9992,2 53619  53.2187   5.5928 0002641  30.9650 329.1498 15.08842900 21159,6917.871999999999,95.437,541.564,537.91,0.0
53619.0,STARLINK-4609,PAYLOAD,2023-01-13 05:29:44,15.08867801,0.0002523,53.2175,3.2134,24.6003,335.5109,0.00024803,3.664e-05,0.0,0 STARLINK-4609,1 53619U 22104AH  23013.22898445  .00003664  00000-0  24803-3 0  9993,2 53619  53.2175   3.2134 0002523  24.6003 335.5109 15.08867801 21237,6917.795,95.436,541.406,537.915,0.0
53619.0,STARLINK-4609,PAYLOAD,2023-01-13 16:37:26,15.08848407,0.0002535,53.2178,1.1316,35.9148,324.2015,4.3702e-05,4.07e-06,0.0,0 STARLINK-4609,1 53619U 22104AH  23013.69267181  .00000407  00000-0  43702-4 0  9993,2 53619  53.2178   1.1316 0002535  35.9148 324.2015 15.08848407 21307,6917.855,95.437,541.4730000000001,537.966,0.0
53619.0,STARLINK-4609,PAYLOAD,2023-01-14 05:20:33,15.0881938,0.0002153,53.2172,358.7521,43.4452,316.671,-0.00028572,-4.83e-05,0.0,0 STARLINK-4609,1 53619U 22104AH  23014.22261064 -.00004830  00000-0 -28572-3 0  9990,2 53619  53.2172 358.7521 0002153  43.4452 316.6710 15.08819380 21381,6917.943,95.439,541.298,538.319,0.0
53619.0,STARLINK-4609,PAYLOAD,2023-01-15 05:11:20,15.08838397,0.0002036,53.2177,354.2912,45.3519,314.7639,0.00033737,5.085e-05,0.0,0 STARLINK-4609,1 53619U 22104AH  23015.21621448  .00005085  00000-0  33737-3 0  9996,2 53619  53.2177 354.2912 0002036  45.3519 314.7639 15.08838397 21531,6917.885,95.438,541.159,538.342,0.0
53619.0,STARLINK-4609,PAYLOAD,2023-01-15 08:22:07,15.08840211,0.0002065,53.2176,353.6967,47.274,312.8426,0.00069994,0.00010869,0.0,0 STARLINK-4609,1 53619U 22104AH  23015.34869764  .00010869  00000-0  69994-3 0  9995,2 53619  53.2176 353.6967 0002065  47.2740 312.8426 15.08840211 22129,6917.88,95.438,541.173,538.316,0.0
53619.0,STARLINK-4609,PAYLOAD,2023-01-16 05:02:07,15.08888568,0.0001798,53.218,349.8318,54.0896,306.0263,0.0019250999999999,0.00030524,0.0,0 STARLINK-4609,1 53619U 22104AH  23016.20981045  .00030524  00000-0  19251-2 0  9998,2 53619  53.2180 349.8318 0001798  54.0896 306.0263 15.08888568 21682,6917.732,95.434,540.841,538.3530000000001,0.0
53619.0,STARLINK-4609,PAYLOAD,2023-01-16 08:12:53,15.08901917,0.000175,53.2183,349.2371,55.8233,304.2925,0.002736,0.00043599,0.0,0 STARLINK-4609,1 53619U 22104AH  23016.34228635  .00043599  00000-0  27360-2 0  9998,2 53619  53.2183 349.2371 0001750  55.8233 304.2925 15.08901917 22275,6917.691,95.434,540.7669999999999,538.346,0.0
53619.0,STARLINK-4609,PAYLOAD,2023-01-16 22:31:22,15.08827954,0.0002583,53.2185,346.5628,63.9195,296.2063,2.6622e-05,1.35e-06,0.0,0 STARLINK-4609,1 53619U 22104AH  23016.93846027  .00000135  00000-0  26622-4 0  9995,2 53619  53.2185 346.5628 0002583  63.9195 296.2063 15.08827954 21791,6917.917,95.438,541.569,537.995,0.0
53619.0,STARLINK-4609,PAYLOAD,2023-01-17 14:25:15,15.08824101,0.0001595,53.2191,343.5895,82.2892,277.8282,0.0010892999999999,0.00017083,0.0,0 STARLINK-4609,1 53619U 22104AH  23017.60087202  .00017083  00000-0  10893-2 0  9993,2 53619  53.2191 343.5895 0001595  82.2892 277.8282 15.08824101 22465,6917.929,95.439,540.8969999999999,538.691,0.0
53619.0,STARLINK-4609,PAYLOAD,2023-01-18 06:19:06,15.08859144,0.0001595999999999,53.218,340.6158,84.4853,275.6322,0.0020978999999999,0.00033276,0.0,0 STARLINK-4609,1 53619U 22104AH  23018.26327278  .00033276  00000-0  20979-2 0  9994,2 53619  53.2180 340.6158 0001596  84.4853 275.6322 15.08859144 21998,6917.821999999999,95.436,540.7909999999999,538.5830000000001,0.0
53619.0,STARLINK-4609,PAYLOAD,2023-01-18 14:16:02,15.08862504,0.0001578,53.2187,339.1287,86.3162,273.801,0.0013040999999999,0.0002054,0.0,0 STARLINK-4609,1 53619U 22104AH  23018.59446960  .00020540  00000-0  13041-2 0  9992,2 53619  53.2187 339.1287 0001578  86.3162 273.8010 15.08862504 22040,6917.812,95.436,540.768,538.585,0.0
53619.0,STARLINK-4609,PAYLOAD,2023-01-19 01:23:43,15.08869386,0.0001663,53.2188,337.0475,87.9201,272.1982,0.00091524,0.0001431999999999,0.0,0 STARLINK-4609,1 53619U 22104AH  23019.05814318  .00014320  00000-0  91524-3 0  9992,2 53619  53.2188 337.0475 0001663  87.9201 272.1982 15.08869386 22116,6917.791,95.436,540.806,538.505,0.0
53619.0,STARLINK-4609,PAYLOAD,2023-01-19 07:45:15,15.08884391,0.0001415,53.2178,335.8558,86.0675,274.0479,0.0011828,0.00018609,0.0,0 STARLINK-4609,1 53619U 22104AH  23019.32309427  .00018609  00000-0  11828-2 0  9994,2 53619  53.2178 335.8558 0001415  86.0675 274.0479 15.08884391 22725,6917.745,95.435,540.589,538.631,0.0
53619.0,STARLINK-4609,PAYLOAD,2023-01-20 09:11:27,15.08828753,0.0002391,53.2181,331.0998,34.3191,325.7956,0.00063426,9.818e-05,0.0,0 STARLINK-4609,1 53619U 22104AH  23020.38295859  .00009818  00000-0  63426-3 0  9999,2 53619  53.2181 331.0998 0002391  34.3191 325.7956 15.08828753 22317,6917.915,95.438,541.434,538.126,0.0
53619.0,STARLINK-4609,PAYLOAD,2023-01-21 02:40:42,15.08846927,0.0001365,53.2175,327.82800000000003,79.0724,281.0421,0.0039147,0.0006257999999999,0.0,0 STARLINK-4609,1 53619U 22104AH  23021.11159740  .00062580  00000-0  39147-2 0  9996,2 53619  53.2175 327.8280 0001365  79.0724 281.0421 15.08846927 22421,6917.859,95.437,540.669,538.78,0.0
53619.0,STARLINK-4609,PAYLOAD,2023-01-21 13:48:23,15.08866596,0.0001182,53.2189,325.7453,95.5788,264.5339,0.00076316,0.00011887,0.0,0 STARLINK-4609,1 53619U 22104AH  23021.57526852  .00011887  00000-0  76316-3 0  9992,2 53619  53.2189 325.7453 0001182  95.5788 264.5339 15.08866596 22490,6917.799,95.436,540.482,538.846,0.0
53619.0,STARLINK-4609,PAYLOAD,2023-01-22 02:31:27,15.08859058,0.0001258,53.2189,323.3659,108.5367,251.5762,0.00097335,0.00015245,0.0,0 STARLINK-4609,1 53619U 22104AH  23022.10518487  .00015245  00000-0  97335-3 0  9993,2 53619  53.2189 323.3659 0001258 108.5367 251.5762 15.08859058 22574,6917.821999999999,95.436,540.557,538.817,0.0
53619.0,STARLINK-4609,PAYLOAD,2023-01-23 03:57:39,15.08834288,0.0001303,53.2193,318.6102,69.214,290.8992,0.00038929,5.912e-05,0.0,0 STARLINK-4609,1 53619U 22104AH  23023.16503759  .00005912  00000-0  38929-3 0  9990,2 53619  53.2193 318.6102 0001303  69.2140 290.8992 15.08834288 22739,6917.898,95.438,540.664,538.861,0.0
53619.0,STARLINK-4609,PAYLOAD,2023-01-24 03:48:25,15.08885507,0.0001344,53.2187,314.1507,73.2216,286.8924,0.0025829,0.0004111,0.0,0 STARLINK-4609,1 53619U 22104AH  23024.15863322  .00041110  00000-0  25829-2 0  9999,2 53619  53.2187 314.1507 0001344  73.2216 286.8924 15.08885507 22882,6917.741,95.435,540.536,538.677,0.0
53619.0,STARLINK-4609,PAYLOAD,2023-01-25 03:39:12,15.08854478,9.88e-05,53.2183,309.6896,89.8969,270.2136,0.00064087,9.93e-05,0.0,0 STARLINK-4609,1 53619U 22104AH  23025.15223277  .00009930  00000-0  64087-3 0  9993,2 53619  53.2183 309.6896 0000988  89.8969 270.2136 15.08854478 23032,6917.835999999999,95.437,540.385,539.018,0.0
53619.0,STARLINK-4609,PAYLOAD,2023-01-25 11:36:08,15.08828127,0.000121,53.2176,308.203,90.3228,269.7903,5.6344e-05,6.09e-06,0.0,0 STARLINK-4609,1 53619U 22104AH  23025.48343329  .00000609  00000-0  56344-4 0  9992,2 53619  53.2176 308.2030 0001210  90.3228 269.7903 15.08828127 23085,6917.917,95.438,540.619,538.945,0.0
53619.0,STARLINK-4609,PAYLOAD,2023-01-25 19:33:04,15.08833493,9.2e-05,53.2172,306.7162,102.2541,257.8554,0.0017146,0.000271,0.0,0 STARLINK-4609,1 53619U 22104AH  23025.81463884  .00027100  00000-0  17146-2 0  9998,2 53619  53.2172 306.7162 0000920 102.2541 257.8554 15.08833493 23709,6917.9,95.438,540.4019999999999,539.129,0.0
53619.0,STARLINK-4609,PAYLOAD,2023-01-26 03:30:00,15.08858868,8.840000000000001e-05,53.2172,305.2304,104.0052,256.1038,0.0019916,0.00031567,0.0,0 STARLINK-4609,1 53619U 22104AH  23026.14583549  .00031567  00000-0  19916-2 0  9995,2 53619  53.2172 305.2304 0000884 104.0052 256.1038 15.08858868 23181,6917.823,95.436,540.299,539.076,0.0
53619.0,STARLINK-4609,PAYLOAD,2023-01-27 03:20:47,15.08855037,8.03e-05,53.2167,300.7698,83.1896,276.9187,0.00084268,0.00013154,0.0,0 STARLINK-4609,1 53619U 22104AH  23027.13943647  .00013154  00000-0  84268-3 0  9999,2 53619  53.2167 300.7698 0000803  83.1896 276.9187 15.08855037 23332,6917.834,95.437,540.255,539.144,0.0
53619.0,STARLINK-4609,PAYLOAD,2023-01-28 03:11:35,15.08845181,0.0001152,53.2166,296.3096,78.2576,281.8546,0.0010832,0.00016996,0.0,0 STARLINK-4609,1 53619U 22104AH  23028.13304400  .00016996  00000-0  10832-2 0  9990,2 53619  53.2166 296.3096 0001152  78.2576 281.8546 15.08845181 23480,6917.865,95.437,540.526,538.933,0.0
53619.0,STARLINK-4609,PAYLOAD,2023-01-28 17:30:03,15.08840203,0.0001116,53.2168,293.6323,84.6215,275.4905,0.00052675,8.105e-05,0.0,0 STARLINK-4609,1 53619U 22104AH  23028.72920279  .00008105  00000-0  52675-3 0  9998,2 53619  53.2168 293.6323 0001116  84.6215 275.4905 15.08840203 23574,6917.88,95.438,540.517,538.973,0.0
